STARLINK-3840           
1 52466U 22049R   23170.14858725  .00002546  00000+0  17797-3 0  9993
2 52466  53.2156 203.9537 0000815  66.3689 293.7389 15.08837977 62260
STARLINK-3873           
1 52467U 22049S   23169.80537697  .00000713  00000+0  62857-4 0  9999
2 52467  53.2175 205.3323 0001232 103.2762 256.8368 15.08835111 62050
STARLINK-3864           
1 52468U 22049T   23169.79065000 -.00000859  00000+0 -35884-4 0  9995
2 52468  53.2159 205.3951 0001127  89.4248 270.6873 15.08837873 62059
STARLINK-3828           
1 52469U 22049U   23169.79800672 -.00002335  00000+0 -12867-3 0  9994
2 52469  53.2167 205.3638 0001034  94.3630 265.7481 15.08845261 62058
STARLINK-3859           
1 52470U 22049V   23169.38584796 -.00000140  00000+0  93036-5 0  9997
2 52470  53.2149 207.2102 0001100  91.9969 268.1149 15.08839582 61998
STARLINK-3862           
1 52471U 22049W   23169.79528727 -.00000510  00000+0 -13976-4 0  9991
2 52471  53.2163 205.3870 0000905  89.4173 270.6922 15.08839476 62054
STARLINK-3881           
1 52472U 22049X   23169.38217166 -.00000397  00000+0 -68774-5 0  9999
2 52472  53.2157 207.2269 0000938  94.7712 265.3387 15.08842945 61998
STARLINK-3879           
1 52473U 22049Y   23169.38952732 -.00001295  00000+0 -63301-4 0  9993
2 52473  53.2155 207.1945 0001025  89.6998 270.4111 15.08842862 61994
STARLINK-3855           
1 52474U 22049Z   23169.79989146 -.00000126  00000+0  10189-4 0  9995
2 52474  53.2160 195.3667 0001233  84.6117 275.5016 15.08837696 62191
STARLINK-3882           
1 52475U 22049AA  23169.80172602  .00000893  00000+0  74170-4 0  9999
2 52475  53.2155 205.5666 0001136  85.9046 274.2075 15.08847825 62057
STARLINK-3835           
1 52476U 22049AB  23169.79620997 -.00000339  00000+0 -31999-5 0  9993
2 52476  53.2160 195.3821 0001056  86.2349 273.8763 15.08837177 63435
STARLINK-3860           
1 52477U 22049AC  23169.80260770 -.00000112  00000+0  11022-4 0  9997
2 52477  53.2161 195.3418 0000984  87.1457 272.9648 15.08841423 63439
STARLINK-3825           
1 52478U 22049AD  23169.83848504 -.00001786  00000+0 -94171-4 0  9993
2 52478  53.2160 205.1803 0000885  94.7125 265.3968 15.08846567 63304
STARLINK-3878           
1 52479U 22049AE  23169.78789078 -.00000183  00000+0  65553-5 0  9990
2 52479  53.2159 195.4106 0000920  85.1734 274.9363 15.08838399 63433
