[{
    "OBJECT_NAME": "STARLINK-3840",
    "OBJECT_ID": "2022-049R",
    "EPOCH": "2023-06-19T03:33:57.938400",
    "MEAN_MOTION": 15.08837977,
    "ECCENTRICITY": 8.15e-5,
    "INCLINATION": 53.2156,
    "RA_OF_ASC_NODE": 203.9537,
    "ARG_OF_PERICENTER": 66.3689,
    "MEAN_ANOMALY": 293.7389,
    "EPHEMERIS_TYPE": 0,
    "CLASSIFICATION_TYPE": "U",
    "NORAD_CAT_ID": 52466,
    "ELEMENT_SET_NO": 999,
    "REV_AT_EPOCH": 6226,
    "BSTAR": 0.00017797,
    "MEAN_MOTION_DOT": 2.546e-5,
    "MEAN_MOTION_DDOT": 0
},{
    "OBJECT_NAME": "STARLINK-3873",
    "OBJECT_ID": "2022-049S",
    "EPOCH": "2023-06-18T19:19:44.570208",
    "MEAN_MOTION": 15.08835111,
    "ECCENTRICITY": 0.0001232,
    "INCLINATION": 53.2175,
    "RA_OF_ASC_NODE": 205.3323,
    "ARG_OF_PERICENTER": 103.2762,
    "MEAN_ANOMALY": 256.8368,
    "EPHEMERIS_TYPE": 0,
    "CLASSIFICATION_TYPE": "U",
    "NORAD_CAT_ID": 52467,
    "ELEMENT_SET_NO": 999,
    "REV_AT_EPOCH": 6205,
    "BSTAR": 6.2857e-5,
    "MEAN_MOTION_DOT": 7.13e-6,
    "MEAN_MOTION_DDOT": 0
},{
    "OBJECT_NAME": "STARLINK-3864",
    "OBJECT_ID": "2022-049T",
    "EPOCH": "2023-06-18T18:58:32.160000",
    "MEAN_MOTION": 15.08837873,
    "ECCENTRICITY": 0.0001127,
    "INCLINATION": 53.2159,
    "RA_OF_ASC_NODE": 205.3951,
    "ARG_OF_PERICENTER": 89.4248,
    "MEAN_ANOMALY": 270.6873,
    "EPHEMERIS_TYPE": 0,
    "CLASSIFICATION_TYPE": "U",
    "NORAD_CAT_ID": 52468,
    "ELEMENT_SET_NO": 999,
    "REV_AT_EPOCH": 6205,
    "BSTAR": -3.5884e-5,
    "MEAN_MOTION_DOT": -8.59e-6,
    "MEAN_MOTION_DDOT": 0
},{
    "OBJECT_NAME": "STARLINK-3828",
    "OBJECT_ID": "2022-049U",
    "EPOCH": "2023-06-18T19:09:07.780608",
    "MEAN_MOTION": 15.08845261,
    "ECCENTRICITY": 0.0001034,
    "INCLINATION": 53.2167,
    "RA_OF_ASC_NODE": 205.3638,
    "ARG_OF_PERICENTER": 94.363,
    "MEAN_ANOMALY": 265.7481,
    "EPHEMERIS_TYPE": 0,
    "CLASSIFICATION_TYPE": "U",
    "NORAD_CAT_ID": 52469,
    "ELEMENT_SET_NO": 999,
    "REV_AT_EPOCH": 6205,
    "BSTAR": -0.00012867,
    "MEAN_MOTION_DOT": -2.335e-5,
    "MEAN_MOTION_DDOT": 0
},{
    "OBJECT_NAME": "STARLINK-3859",
    "OBJECT_ID": "2022-049V",
    "EPOCH": "2023-06-18T09:15:37.263744",
    "MEAN_MOTION": 15.08839582,
    "ECCENTRICITY": 0.00011,
    "INCLINATION": 53.2149,
    "RA_OF_ASC_NODE": 207.2102,
    "ARG_OF_PERICENTER": 91.9969,
    "MEAN_ANOMALY": 268.1149,
    "EPHEMERIS_TYPE": 0,
    "CLASSIFICATION_TYPE": "U",
    "NORAD_CAT_ID": 52470,
    "ELEMENT_SET_NO": 999,
    "REV_AT_EPOCH": 6199,
    "BSTAR": 9.3036e-6,
    "MEAN_MOTION_DOT": -1.4e-6,
    "MEAN_MOTION_DDOT": 0
},{
    "OBJECT_NAME": "STARLINK-3862",
    "OBJECT_ID": "2022-049W",
    "EPOCH": "2023-06-18T19:05:12.820128",
    "MEAN_MOTION": 15.08839476,
    "ECCENTRICITY": 9.05e-5,
    "INCLINATION": 53.2163,
    "RA_OF_ASC_NODE": 205.387,
    "ARG_OF_PERICENTER": 89.4173,
    "MEAN_ANOMALY": 270.6922,
    "EPHEMERIS_TYPE": 0,
    "CLASSIFICATION_TYPE": "U",
    "NORAD_CAT_ID": 52471,
    "ELEMENT_SET_NO": 999,
    "REV_AT_EPOCH": 6205,
    "BSTAR": -1.3976e-5,
    "MEAN_MOTION_DOT": -5.1e-6,
    "MEAN_MOTION_DDOT": 0
},{
    "OBJECT_NAME": "STARLINK-3881",
    "OBJECT_ID": "2022-049X",
    "EPOCH": "2023-06-18T09:10:19.631424",
    "MEAN_MOTION": 15.08842945,
    "ECCENTRICITY": 9.38e-5,
    "INCLINATION": 53.2157,
    "RA_OF_ASC_NODE": 207.2269,
    "ARG_OF_PERICENTER": 94.7712,
    "MEAN_ANOMALY": 265.3387,
    "EPHEMERIS_TYPE": 0,
    "CLASSIFICATION_TYPE": "U",
    "NORAD_CAT_ID": 52472,
    "ELEMENT_SET_NO": 999,
    "REV_AT_EPOCH": 6199,
    "BSTAR": -6.8774e-6,
    "MEAN_MOTION_DOT": -3.97e-6,
    "MEAN_MOTION_DDOT": 0
},{
    "OBJECT_NAME": "STARLINK-3879",
    "OBJECT_ID": "2022-049Y",
    "EPOCH": "2023-06-18T09:20:55.160448",
    "MEAN_MOTION": 15.08842862,
    "ECCENTRICITY": 0.0001025,
    "INCLINATION": 53.2155,
    "RA_OF_ASC_NODE": 207.1945,
    "ARG_OF_PERICENTER": 89.6998,
    "MEAN_ANOMALY": 270.4111,
    "EPHEMERIS_TYPE": 0,
    "CLASSIFICATION_TYPE": "U",
    "NORAD_CAT_ID": 52473,
    "ELEMENT_SET_NO": 999,
    "REV_AT_EPOCH": 6199,
    "BSTAR": -6.3301e-5,
    "MEAN_MOTION_DOT": -1.295e-5,
    "MEAN_MOTION_DDOT": 0
},{
    "OBJECT_NAME": "STARLINK-3855",
    "OBJECT_ID": "2022-049Z",
    "EPOCH": "2023-06-18T19:11:50.622144",
    "MEAN_MOTION": 15.08837696,
    "ECCENTRICITY": 0.0001233,
    "INCLINATION": 53.216,
    "RA_OF_ASC_NODE": 195.3667,
    "ARG_OF_PERICENTER": 84.6117,
    "MEAN_ANOMALY": 275.5016,
    "EPHEMERIS_TYPE": 0,
    "CLASSIFICATION_TYPE": "U",
    "NORAD_CAT_ID": 52474,
    "ELEMENT_SET_NO": 999,
    "REV_AT_EPOCH": 6219,
    "BSTAR": 1.0189e-5,
    "MEAN_MOTION_DOT": -1.26e-6,
    "MEAN_MOTION_DDOT": 0
},{
    "OBJECT_NAME": "STARLINK-3882",
    "OBJECT_ID": "2022-049AA",
    "EPOCH": "2023-06-18T19:14:29.128128",
    "MEAN_MOTION": 15.08847825,
    "ECCENTRICITY": 0.0001136,
    "INCLINATION": 53.2155,
    "RA_OF_ASC_NODE": 205.5666,
    "ARG_OF_PERICENTER": 85.9046,
    "MEAN_ANOMALY": 274.2075,
    "EPHEMERIS_TYPE": 0,
    "CLASSIFICATION_TYPE": "U",
    "NORAD_CAT_ID": 52475,
    "ELEMENT_SET_NO": 999,
    "REV_AT_EPOCH": 6205,
    "BSTAR": 7.417e-5,
    "MEAN_MOTION_DOT": 8.93e-6,
    "MEAN_MOTION_DDOT": 0
},{
    "OBJECT_NAME": "STARLINK-3835",
    "OBJECT_ID": "2022-049AB",
    "EPOCH": "2023-06-18T19:06:32.541408",
    "MEAN_MOTION": 15.08837177,
    "ECCENTRICITY": 0.0001056,
    "INCLINATION": 53.216,
    "RA_OF_ASC_NODE": 195.3821,
    "ARG_OF_PERICENTER": 86.2349,
    "MEAN_ANOMALY": 273.8763,
    "EPHEMERIS_TYPE": 0,
    "CLASSIFICATION_TYPE": "U",
    "NORAD_CAT_ID": 52476,
    "ELEMENT_SET_NO": 999,
    "REV_AT_EPOCH": 6343,
    "BSTAR": -3.1999e-6,
    "MEAN_MOTION_DOT": -3.39e-6,
    "MEAN_MOTION_DDOT": 0
},{
    "OBJECT_NAME": "STARLINK-3860",
    "OBJECT_ID": "2022-049AC",
    "EPOCH": "2023-06-18T19:15:45.305280",
    "MEAN_MOTION": 15.08841423,
    "ECCENTRICITY": 9.84e-5,
    "INCLINATION": 53.2161,
    "RA_OF_ASC_NODE": 195.3418,
    "ARG_OF_PERICENTER": 87.1457,
    "MEAN_ANOMALY": 272.9648,
    "EPHEMERIS_TYPE": 0,
    "CLASSIFICATION_TYPE": "U",
    "NORAD_CAT_ID": 52477,
    "ELEMENT_SET_NO": 999,
    "REV_AT_EPOCH": 6343,
    "BSTAR": 1.1022e-5,
    "MEAN_MOTION_DOT": -1.12e-6,
    "MEAN_MOTION_DDOT": 0
},{
    "OBJECT_NAME": "STARLINK-3825",
    "OBJECT_ID": "2022-049AD",
    "EPOCH": "2023-06-18T20:07:25.107456",
    "MEAN_MOTION": 15.08846567,
    "ECCENTRICITY": 8.85e-5,
    "INCLINATION": 53.216,
    "RA_OF_ASC_NODE": 205.1803,
    "ARG_OF_PERICENTER": 94.7125,
    "MEAN_ANOMALY": 265.3968,
    "EPHEMERIS_TYPE": 0,
    "CLASSIFICATION_TYPE": "U",
    "NORAD_CAT_ID": 52478,
    "ELEMENT_SET_NO": 999,
    "REV_AT_EPOCH": 6330,
    "BSTAR": -9.4171e-5,
    "MEAN_MOTION_DOT": -1.786e-5,
    "MEAN_MOTION_DDOT": 0
},{
    "OBJECT_NAME": "STARLINK-3878",
    "OBJECT_ID": "2022-049AE",
    "EPOCH": "2023-06-18T18:54:33.763392",
    "MEAN_MOTION": 15.08838399,
    "ECCENTRICITY": 9.2e-5,
    "INCLINATION": 53.2159,
    "RA_OF_ASC_NODE": 195.4106,
    "ARG_OF_PERICENTER": 85.1734,
    "MEAN_ANOMALY": 274.9363,
    "EPHEMERIS_TYPE": 0,
    "CLASSIFICATION_TYPE": "U",
    "NORAD_CAT_ID": 52479,
    "ELEMENT_SET_NO": 999,
    "REV_AT_EPOCH": 6343,
    "BSTAR": 6.5553e-6,
    "MEAN_MOTION_DOT": -1.83e-6,
    "MEAN_MOTION_DDOT": 0
}]